SAR-LUPE 2              
1 31797U 07030A   26116.53531848  .00033078  00000+0  71405-3 0  9990
2 31797  98.0993 214.8546 0009835 294.0841  65.9376 15.44431749 48954
SAPPHIRE                
1 39088U 13009C   26116.50289147  .00000115  00000+0  54957-4 0  9993
2 39088  98.4251 297.1886 0012033  47.4839 312.7361 14.35226152689168
PRAETORIAN SDA_602      
1 65565U 25203A   26116.27441530  .00000221  00000+0  18718-3 0  9993
2 65565  81.3035  58.8503 0005975 345.5464  14.5521 13.84335160 31517
PRAETORIAN SDA_603      
1 65566U 25203B   26116.28472476  .00000233  00000+0  19937-3 0  9995
2 65566  81.3038  58.7205 0009405 341.2883  18.7926 13.83898675 31529
PRAETORIAN SDA_604      
1 65567U 25203C   26116.27220763  .00000017  00000+0  43419-5 0  9999
2 65567  81.3058  59.0649 0005606 354.1769   5.9321 13.83038853 31502
PRAETORIAN SDA_605      
1 65568U 25203D   26116.32440538  .00000088  00000+0  69618-4 0  9996
2 65568  81.3024  58.7306 0008002 338.5635  21.5185 13.83426775 31521
PRAETORIAN SDA_606      
1 65569U 25203E   26116.30817477  .00000110  00000+0  88821-4 0  9998
2 65569  81.3060  58.9497 0005735 343.5359  16.5610 13.83534372 31513
PRAETORIAN SDA_607      
1 65570U 25203F   26116.27473917  .00000177  00000+0  14807-3 0  9998
2 65570  81.3034  58.7184 0008858 342.3833  17.7016 13.84319544 31527
PRAETORIAN SDA_608      
1 65571U 25203G   26116.30671183  .00000058  00000+0  41901-4 0  9992
2 65571  81.3012  58.8306 0006068 351.7495   8.3560 13.83808437 31512
PRAETORIAN SDA_609      
1 65572U 25203H   26116.32937046  .00000263  00000+0  22448-3 0  9990
2 65572  81.3057  58.8071 0006812 343.5421  16.5514 13.84303274 31527
PRAETORIAN SDA_610      
1 65573U 25203J   26116.28911587  .00000050  00000+0  34331-4 0  9997
2 65573  81.3013  58.8100 0006456 347.2660  12.8333 13.83914679 31516
PRAETORIAN SDA_611      
1 65574U 25203K   26116.34056602  .00000283  00000+0  24686-3 0  9992
2 65574  81.3011  58.8814 0005839 357.1414   2.9708 13.83301867 31513
PRAETORIAN SDA_612      
1 65575U 25203L   26116.32260318  .00000193  00000+0  16007-3 0  9990
2 65575  81.3036  58.6127 0009099 341.4303  18.6520 13.85030368 31536
PRAETORIAN SDA_613      
1 65576U 25203M   26116.33017304  .00000065  00000+0  48827-4 0  9991
2 65576  81.3005  58.8554 0005708 349.4006  10.7028 13.82946508 31513
PRAETORIAN SDA_614      
1 65577U 25203N   26116.30205595  .00000068  00000+0  49680-4 0  9991
2 65577  81.3020  58.6965 0006994 341.8097  18.2808 13.84770788 31537
PRAETORIAN SDA_615      
1 65578U 25203P   26116.33838662  .00000267  00000+0  22810-3 0  9998
2 65578  81.3031  58.5934 0008924 340.0235  20.0571 13.84427979 31534
PRAETORIAN SDA_616      
1 65579U 25203Q   26116.33929398  .00000191  00000+0  16349-3 0  9992
2 65579  81.3070  58.9960 0005604 356.3486   3.7628 13.83317590 31516
PRAETORIAN SDA_617      
1 65580U 25203R   26116.28391060  .00000068  00000+0  51713-4 0  9995
2 65580  81.3042  58.8830 0007339 342.2102  17.8796 13.83197067 31515
PRAETORIAN SDA_618      
1 65581U 25203S   26116.31579524  .00000286  00000+0  24368-3 0  9990
2 65581  81.3030  58.5700 0009610 340.6078  19.4712 13.84767118 31533
PRAETORIAN SDA_619      
1 65582U 25203T   26116.32023361  .00000190  00000+0  16021-3 0  9996
2 65582  81.3051  58.7825 0007838 340.2669  19.8183 13.83936871 32157
PRAETORIAN SDA_620      
1 65583U 25203U   26116.33775440  .00000330  00000+0  28854-3 0  9993
2 65583  81.3035  58.7721 0007419 337.7803  22.3031 13.83612613 31527
PRAETORIAN SDA_621      
1 65584U 25203V   26116.31834914  .00000081  00000+0  62438-4 0  9994
2 65584  81.3026  58.7280 0007131 335.9640  24.1183 13.83792907 31521
PRAETORIAN SDA_601      
1 65585U 25203W   26116.34158051  .00000027  00000+0  13847-4 0  9999
2 65585  81.3040  58.9514 0005665 356.3225   3.7888 13.83423410 31510
